STARLINK-32439          
1 61665U 24193E   26087.05380040 -.00000365  00000+0 -20035-6 0  9997
2 61665  53.1632   6.0354 0001268  94.5577 265.5568 15.30203107 79339
STARLINK-32428          
1 61666U 24193F   26087.46668218  .00000663  00000+0  34517-4 0  9996
2 61666  53.1604   3.6370 0001382 100.9601 259.1555 15.30201422 79408
STARLINK-32414          
1 61667U 24193G   26087.49939431  .00001653  00000+0  67950-4 0  9995
2 61667  53.1638   3.8417 0001790 103.8248 256.2952 15.30195899 79401
STARLINK-32441          
1 61668U 24193H   26087.16438387  .00004187  00000+0  15344-3 0  9998
2 61668  53.1631   5.3036 0001567  92.9329 267.1851 15.30194670 79358
STARLINK-32400          
1 61669U 24193J   26087.47249288  .00000217  00000+0  19459-4 0  9995
2 61669  53.1626   1.5418 0001005  94.6879 265.4237 15.30194519 79431
STARLINK-32449          
1 61670U 24193K   26087.48463740 -.00001123  00000+0 -25821-4 0  9998
2 61670  53.1639   3.7467 0001192  97.7608 262.3528 15.30176062 79405
STARLINK-32453          
1 61671U 24193L   26087.47196300  .00002139  00000+0  84326-4 0  9994
2 61671  53.1642   3.6683 0001653  69.9122 290.2057 15.30196379 79403
STARLINK-32443          
1 61672U 24193M   26087.46984896  .00000998  00000+0  45819-4 0  9994
2 61672  53.1636   3.6558 0001553  84.4828 275.6350 15.30197837 79405
STARLINK-32417          
1 61673U 24193N   26087.46562714  .00000758  00000+0  37738-4 0  9991
2 61673  53.1629   3.6301 0001473  83.8463 276.2706 15.30197294 79402
STARLINK-32326          
1 61674U 24193P   26087.46351641  .00008130  00000+0  28627-3 0  9995
2 61674  53.1596   3.6151 0001066  77.3997 282.7123 15.30203107 79403
STARLINK-32294          
1 61675U 24193Q   26087.46034557  .00001141  00000+0  50638-4 0  9993
2 61675  53.1629   3.5974 0001416 121.8585 238.2554 15.30201270 79403
STARLINK-32309          
1 61676U 24193R   26087.18854083 -.00001104  00000+0 -25166-4 0  9996
2 61676  53.1619   4.7415 0001228  74.4266 285.6870 15.30195647 79368
STARLINK-32323          
1 61677U 24193S   26087.45611953  .00000095  00000+0  15330-4 0  9992
2 61677  53.1620   3.5658 0001321  70.8015 289.3129 15.30213298 79409
STARLINK-32363          
1 61678U 24193T   26087.06002327  .00000231  00000+0  19936-4 0  9997
2 61678  53.1636   5.3654 0001344  97.1723 262.9431 15.30194211 79345
STARLINK-32395          
1 61679U 24193U   26087.18548454  .00000872  00000+0  41584-4 0  9992
2 61679  53.1629   5.4320 0001510  84.7355 275.3818 15.30196642 79355
STARLINK-32412          
1 61680U 24193V   26087.24339342 -.00003966  00000+0 -12174-3 0  9996
2 61680  53.1621   5.0823 0001184  76.1442 283.9691 15.30230856 79363
STARLINK-32426          
1 61681U 24193W   26087.18231692  .00003300  00000+0  12348-3 0  9992
2 61681  53.1623   5.4083 0001392  95.0726 265.0434 15.30201599 79351
