[{"OBJECT_NAME":"STARLINK-32439","OBJECT_ID":"2024-193E","EPOCH":"2026-03-28T01:17:28.354560","MEAN_MOTION":15.30203107,"ECCENTRICITY":0.00012688,"INCLINATION":53.1632,"RA_OF_ASC_NODE":6.0354,"ARG_OF_PERICENTER":94.5577,"MEAN_ANOMALY":265.5568,"EPHEMERIS_TYPE":0,"CLASSIFICATION_TYPE":"U","NORAD_CAT_ID":61665,"ELEMENT_SET_NO":999,"REV_AT_EPOCH":7933,"BSTAR":-2.00354e-7,"MEAN_MOTION_DOT":-3.65e-6,"MEAN_MOTION_DDOT":0},{"OBJECT_NAME":"STARLINK-32428","OBJECT_ID":"2024-193F","EPOCH":"2026-03-28T11:12:01.340352","MEAN_MOTION":15.30201422,"ECCENTRICITY":0.0001382,"INCLINATION":53.1604,"RA_OF_ASC_NODE":3.637,"ARG_OF_PERICENTER":100.9601,"MEAN_ANOMALY":259.1555,"EPHEMERIS_TYPE":0,"CLASSIFICATION_TYPE":"U","NORAD_CAT_ID":61666,"ELEMENT_SET_NO":999,"REV_AT_EPOCH":7940,"BSTAR":3.4517e-5,"MEAN_MOTION_DOT":6.63e-6,"MEAN_MOTION_DDOT":0},{"OBJECT_NAME":"STARLINK-32414","OBJECT_ID":"2024-193G","EPOCH":"2026-03-28T11:59:07.668384","MEAN_MOTION":15.30195899,"ECCENTRICITY":0.000179,"INCLINATION":53.1638,"RA_OF_ASC_NODE":3.8417,"ARG_OF_PERICENTER":103.8248,"MEAN_ANOMALY":256.2952,"EPHEMERIS_TYPE":0,"CLASSIFICATION_TYPE":"U","NORAD_CAT_ID":61667,"ELEMENT_SET_NO":999,"REV_AT_EPOCH":7940,"BSTAR":6.795e-5,"MEAN_MOTION_DOT":1.653e-5,"MEAN_MOTION_DDOT":0},{"OBJECT_NAME":"STARLINK-32441","OBJECT_ID":"2024-193H","EPOCH":"2026-03-28T03:56:42.766368","MEAN_MOTION":15.3019467,"ECCENTRICITY":0.00015671,"INCLINATION":53.1631,"RA_OF_ASC_NODE":5.3036,"ARG_OF_PERICENTER":92.9329,"MEAN_ANOMALY":267.1851,"EPHEMERIS_TYPE":0,"CLASSIFICATION_TYPE":"U","NORAD_CAT_ID":61668,"ELEMENT_SET_NO":999,"REV_AT_EPOCH":7935,"BSTAR":0.00015344452,"MEAN_MOTION_DOT":4.187e-5,"MEAN_MOTION_DDOT":0},{"OBJECT_NAME":"STARLINK-32400","OBJECT_ID":"2024-193J","EPOCH":"2026-03-28T11:20:23.384832","MEAN_MOTION":15.30194519,"ECCENTRICITY":0.0001005,"INCLINATION":53.1626,"RA_OF_ASC_NODE":1.5418,"ARG_OF_PERICENTER":94.6879,"MEAN_ANOMALY":265.4237,"EPHEMERIS_TYPE":0,"CLASSIFICATION_TYPE":"U","NORAD_CAT_ID":61669,"ELEMENT_SET_NO":999,"REV_AT_EPOCH":7943,"BSTAR":1.9459e-5,"MEAN_MOTION_DOT":2.17e-6,"MEAN_MOTION_DDOT":0},{"OBJECT_NAME":"STARLINK-32449","OBJECT_ID":"2024-193K","EPOCH":"2026-03-28T11:37:52.671360","MEAN_MOTION":15.30176062,"ECCENTRICITY":0.0001192,"INCLINATION":53.1639,"RA_OF_ASC_NODE":3.7467,"ARG_OF_PERICENTER":97.7608,"MEAN_ANOMALY":262.3528,"EPHEMERIS_TYPE":0,"CLASSIFICATION_TYPE":"U","NORAD_CAT_ID":61670,"ELEMENT_SET_NO":999,"REV_AT_EPOCH":7940,"BSTAR":-2.5821e-5,"MEAN_MOTION_DOT":-1.123e-5,"MEAN_MOTION_DDOT":0},{"OBJECT_NAME":"STARLINK-32453","OBJECT_ID":"2024-193L","EPOCH":"2026-03-28T11:19:37.603200","MEAN_MOTION":15.30196379,"ECCENTRICITY":0.0001653,"INCLINATION":53.1642,"RA_OF_ASC_NODE":3.6683,"ARG_OF_PERICENTER":69.9122,"MEAN_ANOMALY":290.2057,"EPHEMERIS_TYPE":0,"CLASSIFICATION_TYPE":"U","NORAD_CAT_ID":61671,"ELEMENT_SET_NO":999,"REV_AT_EPOCH":7940,"BSTAR":8.4326e-5,"MEAN_MOTION_DOT":2.139e-5,"MEAN_MOTION_DDOT":0},{"OBJECT_NAME":"STARLINK-32443","OBJECT_ID":"2024-193M","EPOCH":"2026-03-28T11:16:34.950144","MEAN_MOTION":15.30197837,"ECCENTRICITY":0.0001553,"INCLINATION":53.1636,"RA_OF_ASC_NODE":3.6558,"ARG_OF_PERICENTER":84.4828,"MEAN_ANOMALY":275.635,"EPHEMERIS_TYPE":0,"CLASSIFICATION_TYPE":"U","NORAD_CAT_ID":61672,"ELEMENT_SET_NO":999,"REV_AT_EPOCH":7940,"BSTAR":4.5819e-5,"MEAN_MOTION_DOT":9.98e-6,"MEAN_MOTION_DDOT":0},{"OBJECT_NAME":"STARLINK-32417","OBJECT_ID":"2024-193N","EPOCH":"2026-03-28T11:10:30.184896","MEAN_MOTION":15.30197294,"ECCENTRICITY":0.0001473,"INCLINATION":53.1629,"RA_OF_ASC_NODE":3.6301,"ARG_OF_PERICENTER":83.8463,"MEAN_ANOMALY":276.2706,"EPHEMERIS_TYPE":0,"CLASSIFICATION_TYPE":"U","NORAD_CAT_ID":61673,"ELEMENT_SET_NO":999,"REV_AT_EPOCH":7940,"BSTAR":3.7738e-5,"MEAN_MOTION_DOT":7.58e-6,"MEAN_MOTION_DDOT":0},{"OBJECT_NAME":"STARLINK-32326","OBJECT_ID":"2024-193P","EPOCH":"2026-03-28T11:07:27.817824","MEAN_MOTION":15.30203107,"ECCENTRICITY":0.0001066,"INCLINATION":53.1596,"RA_OF_ASC_NODE":3.6151,"ARG_OF_PERICENTER":77.3997,"MEAN_ANOMALY":282.7123,"EPHEMERIS_TYPE":0,"CLASSIFICATION_TYPE":"U","NORAD_CAT_ID":61674,"ELEMENT_SET_NO":999,"REV_AT_EPOCH":7940,"BSTAR":0.00028627,"MEAN_MOTION_DOT":8.13e-5,"MEAN_MOTION_DDOT":0},{"OBJECT_NAME":"STARLINK-32294","OBJECT_ID":"2024-193Q","EPOCH":"2026-03-28T11:02:53.857248","MEAN_MOTION":15.3020127,"ECCENTRICITY":0.0001416,"INCLINATION":53.1629,"RA_OF_ASC_NODE":3.5974,"ARG_OF_PERICENTER":121.8585,"MEAN_ANOMALY":238.2554,"EPHEMERIS_TYPE":0,"CLASSIFICATION_TYPE":"U","NORAD_CAT_ID":61675,"ELEMENT_SET_NO":999,"REV_AT_EPOCH":7940,"BSTAR":5.0638e-5,"MEAN_MOTION_DOT":1.141e-5,"MEAN_MOTION_DDOT":0},{"OBJECT_NAME":"STARLINK-32309","OBJECT_ID":"2024-193R","EPOCH":"2026-03-28T04:31:29.927712","MEAN_MOTION":15.30195647,"ECCENTRICITY":0.0001228,"INCLINATION":53.1619,"RA_OF_ASC_NODE":4.7415,"ARG_OF_PERICENTER":74.4266,"MEAN_ANOMALY":285.687,"EPHEMERIS_TYPE":0,"CLASSIFICATION_TYPE":"U","NORAD_CAT_ID":61676,"ELEMENT_SET_NO":999,"REV_AT_EPOCH":7936,"BSTAR":-2.5165729e-5,"MEAN_MOTION_DOT":-1.104e-5,"MEAN_MOTION_DDOT":0},{"OBJECT_NAME":"STARLINK-32323","OBJECT_ID":"2024-193S","EPOCH":"2026-03-28T10:56:48.727392","MEAN_MOTION":15.30213298,"ECCENTRICITY":0.0001321,"INCLINATION":53.162,"RA_OF_ASC_NODE":3.5658,"ARG_OF_PERICENTER":70.8015,"MEAN_ANOMALY":289.3129,"EPHEMERIS_TYPE":0,"CLASSIFICATION_TYPE":"U","NORAD_CAT_ID":61677,"ELEMENT_SET_NO":999,"REV_AT_EPOCH":7940,"BSTAR":1.533e-5,"MEAN_MOTION_DOT":9.5e-7,"MEAN_MOTION_DDOT":0},{"OBJECT_NAME":"STARLINK-32363","OBJECT_ID":"2024-193T","EPOCH":"2026-03-28T01:26:26.010528","MEAN_MOTION":15.30194211,"ECCENTRICITY":0.00013449,"INCLINATION":53.1636,"RA_OF_ASC_NODE":5.3654,"ARG_OF_PERICENTER":97.1723,"MEAN_ANOMALY":262.9431,"EPHEMERIS_TYPE":0,"CLASSIFICATION_TYPE":"U","NORAD_CAT_ID":61678,"ELEMENT_SET_NO":999,"REV_AT_EPOCH":7934,"BSTAR":1.9935756e-5,"MEAN_MOTION_DOT":2.31e-6,"MEAN_MOTION_DDOT":0},{"OBJECT_NAME":"STARLINK-32395","OBJECT_ID":"2024-193U","EPOCH":"2026-03-28T04:27:05.864256","MEAN_MOTION":15.30196642,"ECCENTRICITY":0.00015101,"INCLINATION":53.1629,"RA_OF_ASC_NODE":5.432,"ARG_OF_PERICENTER":84.7355,"MEAN_ANOMALY":275.3818,"EPHEMERIS_TYPE":0,"CLASSIFICATION_TYPE":"U","NORAD_CAT_ID":61679,"ELEMENT_SET_NO":999,"REV_AT_EPOCH":7935,"BSTAR":4.1583682e-5,"MEAN_MOTION_DOT":8.72e-6,"MEAN_MOTION_DDOT":0},{"OBJECT_NAME":"STARLINK-32412","OBJECT_ID":"2024-193V","EPOCH":"2026-03-28T05:50:29.191488","MEAN_MOTION":15.30230856,"ECCENTRICITY":0.0001184,"INCLINATION":53.1621,"RA_OF_ASC_NODE":5.0823,"ARG_OF_PERICENTER":76.1442,"MEAN_ANOMALY":283.9691,"EPHEMERIS_TYPE":0,"CLASSIFICATION_TYPE":"U","NORAD_CAT_ID":61680,"ELEMENT_SET_NO":999,"REV_AT_EPOCH":7936,"BSTAR":-0.00012174,"MEAN_MOTION_DOT":-3.966e-5,"MEAN_MOTION_DDOT":0},{"OBJECT_NAME":"STARLINK-32426","OBJECT_ID":"2024-193W","EPOCH":"2026-03-28T04:22:32.181888","MEAN_MOTION":15.30201599,"ECCENTRICITY":0.00013921,"INCLINATION":53.1623,"RA_OF_ASC_NODE":5.4083,"ARG_OF_PERICENTER":95.0726,"MEAN_ANOMALY":265.0434,"EPHEMERIS_TYPE":0,"CLASSIFICATION_TYPE":"U","NORAD_CAT_ID":61681,"ELEMENT_SET_NO":999,"REV_AT_EPOCH":7935,"BSTAR":0.00012347813,"MEAN_MOTION_DOT":3.3e-5,"MEAN_MOTION_DDOT":0}]
